COSMOS 2433 (720)       
1 32275U 07052A   23191.65993690 -.00000065  00000+0  00000+0 0  9996
2 32275  66.0364 351.7829 0001773 189.5180 170.4855  2.13104074122244
COSMOS 2432 (719)       
1 32276U 07052B   23190.89562200 -.00000061  00000+0  00000+0 0  9997
2 32276  66.0509 351.9158 0008154 337.2714 103.6151  2.13103245122222
COSMOS 2434 (721)       
1 32393U 07065A   23190.86687387  .00000057  00000+0  00000+0 0  9996
2 32393  64.3384 228.2267 0000455 152.5869 209.9776  2.13103108120933
COSMOS 2436 (723)       
1 32395U 07065C   23190.31638796  .00000053  00000+0  00000+0 0  9994
2 32395  64.3470 228.3065 0015269 352.2488  83.5718  2.13102916120852
COSMOS 2456 (730)       
1 36111U 09070A   23191.34042713 -.00000026  00000+0  00000+0 0  9995
2 36111  64.4704 107.7303 0004317 315.8854 209.9716  2.13099189105607
COSMOS 2457 (733)       
1 36112U 09070B   23191.59117573 -.00000030  00000+0  00000+0 0  9995
2 36112  64.4543 107.5883 0003848 165.5085 323.0621  2.13101352105614
COSMOS 2460 (732)       
1 36402U 10007C   23191.53283970 -.00000065  00000+0  00000+0 0  9996
2 36402  65.9002 350.5119 0002257  99.3334 332.2442  2.13106266103966
COSMOS 2476 (744)       
1 37867U 11064A   23190.53799308 -.00000012  00000+0  00000+0 0  9994
2 37867  64.7513 109.2634 0022242 238.1480 300.9546  2.13101692 90935
COSMOS 2477 (745)       
1 37868U 11064B   23192.07988028 -.00000034  00000+0  00000+0 0  9999
2 37868  64.7591 109.2800 0019458 239.1757 220.7117  2.13101629 90922
COSMOS 2475 (743)       
1 37869U 11064C   23191.30835324 -.00000023  00000+0  00000+0 0  9993
2 37869  64.7662 109.3179 0024162 255.3846 291.0153  2.13102008 90911
COSMOS 2485 (747)       
1 39155U 13019A   23191.18495908 -.00000020  00000+0  00000+0 0  9998
2 39155  64.9123 109.7530 0022592 234.0301 125.7727  2.13101891 79416
COSMOS 2492 (754)       
1 39620U 14012A   23191.14048160 -.00000064  00000+0  00000+0 0  9997
2 39620  65.7844 350.1515 0011004 328.9566  30.9840  2.13103108 72373
COSMOS 2500 (755)       
1 40001U 14032A   23190.85526808 -.00000063  00000+0  00000+0 0  9990
2 40001  65.7229 349.9929 0006471 183.5610 176.4402  2.13105905 70585
COSMOS 2501 (702K)      
1 40315U 14075A   23191.57392241  .00000065  00000+0  00000+0 0  9998
2 40315  63.6423 227.6056 0020147 211.1697 148.7784  2.13101436 66998
COSMOS 2514 (751)       
1 41330U 16008A   23190.14712703 -.00000061  00000+0  00000+0 0  9992
2 41330  65.5206 349.6123 0009778 199.3279 160.6403  2.13102604 57737
COSMOS 2516 (753)       
1 41554U 16032A   23190.26349235  .00000053  00000+0  00000+0 0  9996
2 41554  63.8684 228.0361 0015463 214.5421 145.4247  2.13106469 55342
COSMOS 2522 (752)       
1 42939U 17055A   23191.39708940  .00000062  00000+0  00000+0 0  9997
2 42939  64.1026 228.5059 0010003 241.7330 118.2344  2.13101936 45113
COSMOS 2527 (756)       
1 43508U 18053A   23190.41700094 -.00000009  00000+0  00000+0 0  9995
2 43508  65.0737 109.8598 0008158 235.7155 124.2214  2.13102355 39392
COSMOS 2529 (757)       
1 43687U 18086A   23190.04728862  .00000050  00000+0  00000+0 0  9996
2 43687  64.3178 228.9723 0011531 260.7883  99.1499  2.13102098 36395
COSMOS 2534 (758)       
1 44299U 19030A   23191.39138528  .00000061  00000+0  00000+0 0  9991
2 44299  64.3901 228.8476 0013569 279.8775 165.5168  2.13102040 32076
COSMOS 2544 (759)       
1 44850U 19088A   23190.36067189 -.00000009  00000+0  00000+0 0  9990
2 44850  65.0596 109.7057 0013097 259.9771  99.8897  2.13102103 27814
COSMOS 2545 (760)       
1 45358U 20018A   23190.55749882 -.00000064  00000+0  00000+0 0  9998
2 45358  64.8605 349.8898 0007492 236.2200 123.7144  2.13102549 25783
COSMOS 2547 (705K)      
1 46805U 20075A   23190.27770328  .00000053  00000+0  00000+0 0  9994
2 46805  64.6173 228.4246 0008667 242.9817 116.9979  2.13103062 21025
COSMOS 2557 (706K)      
1 52984U 22075A   23191.37821891 -.00000067  00000+0  00000+0 0  9991
2 52984  64.7748 352.0266 0010504 281.2182  78.6710  2.13102117  7839
COSMOS 2559 (707K)      
1 54031U 22130A   23190.85073058 -.00000065  00000+0  00000+0 0  9992
2 54031  64.7461 352.1746 0005597 210.1691 149.8062  2.13101313  5816
COSMOS 2564 (761)       
1 54377U 22161A   23191.51363979  .00000064  00000+0  00000+0 0  9995
2 54377  64.7580 228.4260 0011140 225.5375 134.4401  2.13102151  4779
